[
    {
        "Altitude(m)": 558585.9394650138,
        "Argument of Periapsis(deg)": 0.013245982221427002,
        "Eccentricity": 0.0,
        "Inclination(deg)": 53.0,
        "Latitude(deg)": -19.002290063332186,
        "Longitude(deg)": 33.379768407744386,
        "Mean Anomaly(deg)": -156.18041426484479,
        "RAAN(deg)": 299.9802867370561,
        "Satellite Name": "Starlink Shell 1 1331",
        "Satellite Number": 1331,
        "Semi-Major Axis(m)": 6931778.249405717,
        "Time(s)": 380
    },
    {
        "Altitude(m)": 558740.9806110443,
        "Argument of Periapsis(deg)": 0.013594560700938237,
        "Eccentricity": 0.0,
        "Inclination(deg)": 53.0,
        "Latitude(deg)": -19.487653263291254,
        "Longitude(deg)": 33.76028648769966,
        "Mean Anomaly(deg)": -155.55358306128812,
        "RAAN(deg)": 299.97976796697856,
        "Satellite Name": "Starlink Shell 1 1331",
        "Satellite Number": 1331,
        "Semi-Major Axis(m)": 6931778.249405717,
        "Time(s)": 390
    },
    {
        "Altitude(m)": 558897.5426427292,
        "Argument of Periapsis(deg)": 0.013943139180449475,
        "Eccentricity": 0.0,
        "Inclination(deg)": 53.0,
        "Latitude(deg)": -19.97198805726129,
        "Longitude(deg)": 34.14330822957745,
        "Mean Anomaly(deg)": -154.92675185773135,
        "RAAN(deg)": 299.9792491969011,
        "Satellite Name": "Starlink Shell 1 1331",
        "Satellite Number": 1331,
        "Semi-Major Axis(m)": 6931778.249405717,
        "Time(s)": 400
    },
    {
        "Altitude(m)": 559055.5714977975,
        "Argument of Periapsis(deg)": 0.014291717659960712,
        "Eccentricity": 0.0,
        "Inclination(deg)": 53.0,
        "Latitude(deg)": -20.455261363703055,
        "Longitude(deg)": 34.528911711921445,
        "Mean Anomaly(deg)": -154.29992065417474,
        "RAAN(deg)": 299.97873042682363,
        "Satellite Name": "Starlink Shell 1 1331",
        "Satellite Number": 1331,
        "Semi-Major Axis(m)": 6931778.249405717,
        "Time(s)": 410
    },
    {
        "Altitude(m)": 559215.0123106359,
        "Argument of Periapsis(deg)": 0.014640296139471948,
        "Eccentricity": 0.0,
        "Inclination(deg)": 53.0,
        "Latitude(deg)": -20.937439513073713,
        "Longitude(deg)": 34.9171755444277,
        "Mean Anomaly(deg)": -153.67308945061794,
        "RAAN(deg)": 299.97821165674617,
        "Satellite Name": "Starlink Shell 1 1331",
        "Satellite Number": 1331,
        "Semi-Major Axis(m)": 6931778.249405717,
        "Time(s)": 420
    },
    {
        "Altitude(m)": 559375.8094367199,
        "Argument of Periapsis(deg)": 0.014988874618983185,
        "Eccentricity": 0.0,
        "Inclination(deg)": 53.0,
        "Latitude(deg)": -21.418488226595198,
        "Longitude(deg)": 35.30817939635429,
        "Mean Anomaly(deg)": -153.04625824706127,
        "RAAN(deg)": 299.97769288666865,
        "Satellite Name": "Starlink Shell 1 1331",
        "Satellite Number": 1331,
        "Semi-Major Axis(m)": 6931778.249405717,
        "Time(s)": 430
    },
    {
        "Altitude(m)": 559537.906477403,
        "Argument of Periapsis(deg)": 0.015337453098494424,
        "Eccentricity": 0.0,
        "Inclination(deg)": 53.0,
        "Latitude(deg)": -21.89837259454808,
        "Longitude(deg)": 35.702004524382914,
        "Mean Anomaly(deg)": -152.41942704350456,
        "RAAN(deg)": 299.97717411659124,
        "Satellite Name": "Starlink Shell 1 1331",
        "Satellite Number": 1331,
        "Semi-Major Axis(m)": 6931778.249405717,
        "Time(s)": 440
    },
    {
        "Altitude(m)": 559701.2463051106,
        "Argument of Periapsis(deg)": 0.01568603157800566,
        "Eccentricity": 0.0,
        "Inclination(deg)": 53.0,
        "Latitude(deg)": -22.377057054081465,
        "Longitude(deg)": 36.098732786980996,
        "Mean Anomaly(deg)": -151.79259583994786,
        "RAAN(deg)": 299.9766553465138,
        "Satellite Name": "Starlink Shell 1 1331",
        "Satellite Number": 1331,
        "Semi-Major Axis(m)": 6931778.249405717,
        "Time(s)": 450
    },
    {
        "Altitude(m)": 559865.7710888395,
        "Argument of Periapsis(deg)": 0.0160346100575169,
        "Eccentricity": 0.0,
        "Inclination(deg)": 53.0,
        "Latitude(deg)": -22.854505366529327,
        "Longitude(deg)": 36.498447170930575,
        "Mean Anomaly(deg)": -151.16576463639112,
        "RAAN(deg)": 299.97613657643626,
        "Satellite Name": "Starlink Shell 1 1331",
        "Satellite Number": 1331,
        "Semi-Major Axis(m)": 6931778.249405717,
        "Time(s)": 460
    },
    {
        "Altitude(m)": 560031.4223200041,
        "Argument of Periapsis(deg)": 0.016383188537028134,
        "Eccentricity": 0.0,
        "Inclination(deg)": 53.0,
        "Latitude(deg)": -23.330680594225832,
        "Longitude(deg)": 36.90123231705794,
        "Mean Anomaly(deg)": -150.53893343283437,
        "RAAN(deg)": 299.9756178063588,
        "Satellite Name": "Starlink Shell 1 1331",
        "Satellite Number": 1331,
        "Semi-Major Axis(m)": 6931778.249405717,
        "Time(s)": 470
    },
    {
        "Altitude(m)": 560198.1408386142,
        "Argument of Periapsis(deg)": 0.01673176701653937,
        "Eccentricity": 0.0,
        "Inclination(deg)": 53.0,
        "Latitude(deg)": -23.805545076817907,
        "Longitude(deg)": 37.30717353219594,
        "Mean Anomaly(deg)": -149.9121022292777,
        "RAAN(deg)": 299.97509903628134,
        "Satellite Name": "Starlink Shell 1 1331",
        "Satellite Number": 1331,
        "Semi-Major Axis(m)": 6931778.249405717,
        "Time(s)": 480
    },
    {
        "Altitude(m)": 560365.8668597372,
        "Argument of Periapsis(deg)": 0.017080345496050607,
        "Eccentricity": 0.0,
        "Inclination(deg)": 53.0,
        "Latitude(deg)": -24.279060407064183,
        "Longitude(deg)": 37.71635731301916,
        "Mean Anomaly(deg)": -149.28527102572093,
        "RAAN(deg)": 299.9745802662039,
        "Satellite Name": "Starlink Shell 1 1331",
        "Satellite Number": 1331,
        "Semi-Major Axis(m)": 6931778.249405717,
        "Time(s)": 490
    },
    {
        "Altitude(m)": 560534.5400002796,
        "Argument of Periapsis(deg)": 0.017428923975561842,
        "Eccentricity": 0.0,
        "Inclination(deg)": 53.0,
        "Latitude(deg)": -24.751187406118234,
        "Longitude(deg)": 38.12887186876302,
        "Mean Anomaly(deg)": -148.65843982216418,
        "RAAN(deg)": 299.9740614961264,
        "Satellite Name": "Starlink Shell 1 1331",
        "Satellite Number": 1331,
        "Semi-Major Axis(m)": 6931778.249405717,
        "Time(s)": 500
    },
    {
        "Altitude(m)": 560704.0993060314,
        "Argument of Periapsis(deg)": 0.01777750245507308,
        "Eccentricity": 0.0,
        "Inclination(deg)": 53.0,
        "Latitude(deg)": -25.221886098297112,
        "Longitude(deg)": 38.54480612983397,
        "Mean Anomaly(deg)": -148.03160861860752,
        "RAAN(deg)": 299.9735427260489,
        "Satellite Name": "Starlink Shell 1 1331",
        "Satellite Number": 1331,
        "Semi-Major Axis(m)": 6931778.249405717,
        "Time(s)": 510
    },
    {
        "Altitude(m)": 560874.4832789843,
        "Argument of Periapsis(deg)": 0.018126080934584315,
        "Eccentricity": 0.0,
        "Inclination(deg)": 53.0,
        "Latitude(deg)": -25.691115685328082,
        "Longitude(deg)": 38.96425026792127,
        "Mean Anomaly(deg)": -147.40477741505083,
        "RAAN(deg)": 299.9730239559714,
        "Satellite Name": "Starlink Shell 1 1331",
        "Satellite Number": 1331,
        "Semi-Major Axis(m)": 6931778.249405717,
        "Time(s)": 520
    },
    {
        "Altitude(m)": 561045.6299048938,
        "Argument of Periapsis(deg)": 0.018474659414095554,
        "Eccentricity": 0.0,
        "Inclination(deg)": 53.0,
        "Latitude(deg)": -26.158834520076113,
        "Longitude(deg)": 39.387296214595466,
        "Mean Anomaly(deg)": -146.7779462114941,
        "RAAN(deg)": 299.97250518589397,
        "Satellite Name": "Starlink Shell 1 1331",
        "Satellite Number": 1331,
        "Semi-Major Axis(m)": 6931778.249405717,
        "Time(s)": 530
    },
    {
        "Altitude(m)": 561217.4766810873,
        "Argument of Periapsis(deg)": 0.018823237893606792,
        "Eccentricity": 0.0,
        "Inclination(deg)": 53.0,
        "Latitude(deg)": -26.625000079757534,
        "Longitude(deg)": 39.81403666536732,
        "Mean Anomaly(deg)": -146.15111500793734,
        "RAAN(deg)": 299.9719864158165,
        "Satellite Name": "Starlink Shell 1 1331",
        "Satellite Number": 1331,
        "Semi-Major Axis(m)": 6931778.249405717,
        "Time(s)": 540
    },
    {
        "Altitude(m)": 561389.9606445045,
        "Argument of Periapsis(deg)": 0.019171816373118027,
        "Eccentricity": 0.0,
        "Inclination(deg)": 53.0,
        "Latitude(deg)": -27.089568938637946,
        "Longitude(deg)": 40.24456559478771,
        "Mean Anomaly(deg)": -145.52428380438067,
        "RAAN(deg)": 299.971467645739,
        "Satellite Name": "Starlink Shell 1 1331",
        "Satellite Number": 1331,
        "Semi-Major Axis(m)": 6931778.249405717,
        "Time(s)": 550
    },
    {
        "Altitude(m)": 561563.0183999339,
        "Argument of Periapsis(deg)": 0.019520394852629266,
        "Eccentricity": 0.0,
        "Inclination(deg)": 53.0,
        "Latitude(deg)": -27.552496740224353,
        "Longitude(deg)": 40.67897876953846,
        "Mean Anomaly(deg)": -144.89745260082395,
        "RAAN(deg)": 299.9709488756616,
        "Satellite Name": "Starlink Shell 1 1331",
        "Satellite Number": 1331,
        "Semi-Major Axis(m)": 6931778.249405717,
        "Time(s)": 560
    }
]